{"type": "FeatureCollection", "features": [ {"type": "Feature", "properties": {"norad_id": 30828, "name": "FENGYUN 1C DEB", "group": "fengyun-1c-debris", "lat": -65.40816298177262, "lon": -103.03477391048479, "alt_km": 603.1912570942604, "timestamp": "2025-12-14T16:47:40.962715+00:00", "meta": {"OBJECT_NAME": "FENGYUN 1C DEB", "OBJECT_ID": "1999-025AVN", "EPOCH": "2025-12-13T13:45:12.612960", "MEAN_MOTION": 14.7702875, "ECCENTRICITY": 0.02090387, "INCLINATION": 98.3751, "RA_OF_ASC_NODE": 94.5731, "ARG_OF_PERICENTER": 176.0786, "MEAN_ANOMALY": 200.7818, "EPHEMERIS_TYPE": 0, "CLASSIFICATION_TYPE": "U", "NORAD_CAT_ID": 30828, "ELEMENT_SET_NO": 999, "REV_AT_EPOCH": 98669, "BSTAR": 0.0018895867, "MEAN_MOTION_DOT": 0.00019142, "MEAN_MOTION_DDOT": 0}, "tle": {"line1": "1 30828U 99025AVN 25347.57306265  .00019142  00000+0  18896-2 0  9991", "line2": "2 30828  98.3751  94.5731 0209038 176.0786 200.7818 14.77028750986697"}}, "geometry": {"type": "Point", "coordinates": [-103.03477391048479, -65.40816298177262]}}, {"type": "Feature", "properties": {"norad_id": 30829, "name": "FENGYUN 1C DEB", "group": "fengyun-1c-debris", "lat": 14.577114730870038, "lon": 163.5986266110714, "alt_km": 889.5851352743566, "timestamp": "2025-12-14T16:47:40.962736+00:00", "meta": {"OBJECT_NAME": "FENGYUN 1C DEB", "OBJECT_ID": "1999-025AVP", "EPOCH": "2025-12-09T09:51:51.342624", "MEAN_MOTION": 14.08646778, "ECCENTRICITY": 0.00356313, "INCLINATION": 98.7767, "RA_OF_ASC_NODE": 336.1491, "ARG_OF_PERICENTER": 344.1121, "MEAN_ANOMALY": 15.8928, "EPHEMERIS_TYPE": 0, "CLASSIFICATION_TYPE": "U", "NORAD_CAT_ID": 30829, "ELEMENT_SET_NO": 999, "REV_AT_EPOCH": 96386, "BSTAR": 0.00080547059, "MEAN_MOTION_DOT": 1.351e-05, "MEAN_MOTION_DDOT": 0}, "tle": {"line1": "1 30829U 99025AVP 25343.41101091  .00001351  00000+0  80547-3 0  9997", "line2": "2 30829  98.7767 336.1491 0035631 344.1121  15.8928 14.08646778963865"}}, "geometry": {"type": "Point", "coordinates": [163.5986266110714, 14.577114730870038]}}, {"type": "Feature", "properties": {"norad_id": 30830, "name": "FENGYUN 1C DEB", "group": "fengyun-1c-debris", "lat": 42.68426818739801, "lon": -31.097206777624592, "alt_km": 865.1063152364313, "timestamp": "2025-12-14T16:47:40.962750+00:00", "meta": {"OBJECT_NAME": "FENGYUN 1C DEB", "OBJECT_ID": "1999-025AVQ", "EPOCH": "2025-12-13T22:10:30.931104", "MEAN_MOTION": 14.12230748, "ECCENTRICITY": 0.00307114, "INCLINATION": 98.7295, "RA_OF_ASC_NODE": 336.2937, "ARG_OF_PERICENTER": 185.3663, "MEAN_ANOMALY": 236.207, "EPHEMERIS_TYPE": 0, "CLASSIFICATION_TYPE": "U", "NORAD_CAT_ID": 30830, "ELEMENT_SET_NO": 999, "REV_AT_EPOCH": 96616, "BSTAR": 0.00035952183, "MEAN_MOTION_DOT": 6.21e-06, "MEAN_MOTION_DDOT": 0}, "tle": {"line1": "1 30830U 99025AVQ 25347.92396911  .00000621  00000+0  35952-3 0  9995", "line2": "2 30830  98.7295 336.2937 0030711 185.3663 236.2070 14.12230748966163"}}, "geometry": {"type": "Point", "coordinates": [-31.097206777624592, 42.68426818739801]}}, {"type": "Feature", "properties": {"norad_id": 30831, "name": "FENGYUN 1C DEB", "group": "fengyun-1c-debris", "lat": 19.011448666050356, "lon": 138.35833146863445, "alt_km": 748.9366271420286, "timestamp": "2025-12-14T16:47:40.962761+00:00", "meta": {"OBJECT_NAME": "FENGYUN 1C DEB", "OBJECT_ID": "1999-025AVR", "EPOCH": "2025-12-13T03:47:25.783584", "MEAN_MOTION": 14.31088633, "ECCENTRICITY": 0.00555105, "INCLINATION": 99.3282, "RA_OF_ASC_NODE": 139.951, "ARG_OF_PERICENTER": 32.948, "MEAN_ANOMALY": 327.514, "EPHEMERIS_TYPE": 0, "CLASSIFICATION_TYPE": "U", "NORAD_CAT_ID": 30831, "ELEMENT_SET_NO": 999, "REV_AT_EPOCH": 65256, "BSTAR": 0.00059988315, "MEAN_MOTION_DOT": 1.558e-05, "MEAN_MOTION_DDOT": 0}, "tle": {"line1": "1 30831U 99025AVR 25347.15793731  .00001558  00000+0  59988-3 0  9997", "line2": "2 30831  99.3282 139.9510 0055510  32.9480 327.5140 14.31088633652563"}}, "geometry": {"type": "Point", "coordinates": [138.35833146863445, 19.011448666050356]}}, {"type": "Feature", "properties": {"norad_id": 30833, "name": "FENGYUN 1C DEB", "group": "fengyun-1c-debris", "lat": 8.129425984407694, "lon": 133.60261847302993, "alt_km": 827.4024973863225, "timestamp": "2025-12-14T16:47:40.962771+00:00", "meta": {"OBJECT_NAME": "FENGYUN 1C DEB", "OBJECT_ID": "1999-025AVT", "EPOCH": "2025-12-13T03:43:43.154976", "MEAN_MOTION": 14.26759277, "ECCENTRICITY": 0.00330206, "INCLINATION": 99.8438, "RA_OF_ASC_NODE": 133.2888, "ARG_OF_PERICENTER": 179.4189, "MEAN_ANOMALY": 180.7031, "EPHEMERIS_TYPE": 0, "CLASSIFICATION_TYPE": "U", "NORAD_CAT_ID": 30833, "ELEMENT_SET_NO": 999, "REV_AT_EPOCH": 64417, "BSTAR": 0.0009108957, "MEAN_MOTION_DOT": 2.165e-05, "MEAN_MOTION_DDOT": 0}, "tle": {"line1": "1 30833U 99025AVT 25347.15536059  .00002165  00000+0  91090-3 0  9992", "line2": "2 30833  99.8438 133.2888 0033020 179.4189 180.7031 14.26759277644172"}}, "geometry": {"type": "Point", "coordinates": [133.60261847302993, 8.129425984407694]}}, {"type": "Feature", "properties": {"norad_id": 30836, "name": "FENGYUN 1C DEB", "group": "fengyun-1c-debris", "lat": 52.979808285204186, "lon": 9.53554849988193, "alt_km": 866.2260348127365, "timestamp": "2025-12-14T16:47:40.962781+00:00", "meta": {"OBJECT_NAME": "FENGYUN 1C DEB", "OBJECT_ID": "1999-025AVW", "EPOCH": "2025-12-11T22:12:36.706176", "MEAN_MOTION": 14.11932534, "ECCENTRICITY": 0.0025667, "INCLINATION": 98.7452, "RA_OF_ASC_NODE": 18.6084, "ARG_OF_PERICENTER": 247.0084, "MEAN_ANOMALY": 112.838, "EPHEMERIS_TYPE": 0, "CLASSIFICATION_TYPE": "U", "NORAD_CAT_ID": 30836, "ELEMENT_SET_NO": 999, "REV_AT_EPOCH": 61992, "BSTAR": 0.00050218, "MEAN_MOTION_DOT": 8.78e-06, "MEAN_MOTION_DDOT": 0}, "tle": {"line1": "1 30836U 99025AVW 25345.92542484  .00000878  00000+0  50218-3 0  9993", "line2": "2 30836  98.7452  18.6084 0025667 247.0084 112.8380 14.11932534619928"}}, "geometry": {"type": "Point", "coordinates": [9.53554849988193, 52.979808285204186]}}, {"type": "Feature", "properties": {"norad_id": 30837, "name": "FENGYUN 1C DEB", "group": "fengyun-1c-debris", "lat": 63.34497760991693, "lon": 172.59626069933753, "alt_km": 814.4675609799733, "timestamp": "2025-12-14T16:47:40.962791+00:00", "meta": {"OBJECT_NAME": "FENGYUN 1C DEB", "OBJECT_ID": "1999-025AVX", "EPOCH": "2025-12-13T04:53:37.269312", "MEAN_MOTION": 14.1452246, "ECCENTRICITY": 0.00329745, "INCLINATION": 98.6788, "RA_OF_ASC_NODE": 333.4275, "ARG_OF_PERICENTER": 132.0978, "MEAN_ANOMALY": 290.0836, "EPHEMERIS_TYPE": 0, "CLASSIFICATION_TYPE": "U", "NORAD_CAT_ID": 30837, "ELEMENT_SET_NO": 999, "REV_AT_EPOCH": 96825, "BSTAR": 0.00045813382, "MEAN_MOTION_DOT": 8.41e-06, "MEAN_MOTION_DDOT": 0}, "tle": {"line1": "1 30837U 99025AVX 25347.20390358  .00000841  00000+0  45813-3 0  9993", "line2": "2 30837  98.6788 333.4275 0032974 132.0978 290.0836 14.14522460968258"}}, "geometry": {"type": "Point", "coordinates": [172.59626069933753, 63.34497760991693]}}, {"type": "Feature", "properties": {"norad_id": 30838, "name": "FENGYUN 1C DEB", "group": "fengyun-1c-debris", "lat": -4.685576618277546, "lon": -96.54760156179289, "alt_km": 758.7115465110592, "timestamp": "2025-12-14T16:47:40.962801+00:00", "meta": {"OBJECT_NAME": "FENGYUN 1C DEB", "OBJECT_ID": "1999-025AVY", "EPOCH": "2025-12-13T17:35:43.082592", "MEAN_MOTION": 14.47764532, "ECCENTRICITY": 0.0034106, "INCLINATION": 99.0422, "RA_OF_ASC_NODE": 261.6717, "ARG_OF_PERICENTER": 155.0954, "MEAN_ANOMALY": 205.1892, "EPHEMERIS_TYPE": 0, "CLASSIFICATION_TYPE": "U", "NORAD_CAT_ID": 30838, "ELEMENT_SET_NO": 999, "REV_AT_EPOCH": 97328, "BSTAR": 0.0028388373, "MEAN_MOTION_DOT": 0.00010532, "MEAN_MOTION_DDOT": 0}, "tle": {"line1": "1 30838U 99025AVY 25347.73313753  .00010532  00000+0  28388-2 0  9991", "line2": "2 30838  99.0422 261.6717 0034106 155.0954 205.1892 14.47764532973282"}}, "geometry": {"type": "Point", "coordinates": [-96.54760156179289, -4.685576618277546]}}, {"type": "Feature", "properties": {"norad_id": 30840, "name": "FENGYUN 1C DEB", "group": "fengyun-1c-debris", "lat": -32.998250367295896, "lon": 174.73314467288108, "alt_km": 829.6755837954379, "timestamp": "2025-12-14T16:47:40.962811+00:00", "meta": {"OBJECT_NAME": "FENGYUN 1C DEB", "OBJECT_ID": "1999-025AWA", "EPOCH": "2025-12-13T23:22:54.736896", "MEAN_MOTION": 14.61122167, "ECCENTRICITY": 0.02175918, "INCLINATION": 98.0241, "RA_OF_ASC_NODE": 359.2848, "ARG_OF_PERICENTER": 6.7524, "MEAN_ANOMALY": 353.6526, "EPHEMERIS_TYPE": 0, "CLASSIFICATION_TYPE": "U", "NORAD_CAT_ID": 30840, "ELEMENT_SET_NO": 999, "REV_AT_EPOCH": 73149, "BSTAR": 0.00089163611, "MEAN_MOTION_DOT": 6.09e-05, "MEAN_MOTION_DDOT": 0}, "tle": {"line1": "1 30840U 99025AWA 25347.97424464  .00006090  00000+0  89164-3 0  9996", "line2": "2 30840  98.0241 359.2848 0217591   6.7524 353.6526 14.61122167731494"}}, "geometry": {"type": "Point", "coordinates": [174.73314467288108, -32.998250367295896]}}, {"type": "Feature", "properties": {"norad_id": 30843, "name": "FENGYUN 1C DEB", "group": "fengyun-1c-debris", "lat": -20.166328050928534, "lon": 63.70774623718021, "alt_km": 795.2978503992699, "timestamp": "2025-12-14T16:47:40.962821+00:00", "meta": {"OBJECT_NAME": "FENGYUN 1C DEB", "OBJECT_ID": "1999-025AWD", "EPOCH": "2025-12-12T21:54:13.697856", "MEAN_MOTION": 14.52476426, "ECCENTRICITY": 0.01488958, "INCLINATION": 98.8425, "RA_OF_ASC_NODE": 58.5476, "ARG_OF_PERICENTER": 119.0949, "MEAN_ANOMALY": 242.5248, "EPHEMERIS_TYPE": 0, "CLASSIFICATION_TYPE": "U", "NORAD_CAT_ID": 30843, "ELEMENT_SET_NO": 999, "REV_AT_EPOCH": 99327, "BSTAR": 0.00028641796, "MEAN_MOTION_DOT": 1.295e-05, "MEAN_MOTION_DDOT": 0}, "tle": {"line1": "1 30843U 99025AWD 25346.91265854  .00001295  00000+0  28642-3 0  9994", "line2": "2 30843  98.8425  58.5476 0148895 119.0949 242.5248 14.52476426993277"}}, "geometry": {"type": "Point", "coordinates": [63.70774623718021, -20.166328050928534]}}]}